$$SOE
2460154.500000000, A.D. 2023-Jul-29 00:00:00.0000, -3.320953317998052E+08, 3.501123013975600E+08, 5.725354960613398E+07,
2460161.500000000, A.D. 2023-Aug-05 00:00:00.0000, -3.394080346200235E+08, 3.435141293759515E+08, 5.600095734734459E+07,
2460168.500000000, A.D. 2023-Aug-12 00:00:00.0000, -3.465773721824555E+08, 3.367707948161530E+08, 5.472470317737496E+07,
2460175.500000000, A.D. 2023-Aug-19 00:00:00.0000, -3.536004935687441E+08, 3.298853158582795E+08, 5.342535430184095E+07,
2460182.500000000, A.D. 2023-Aug-26 00:00:00.0000, -3.604746135526196E+08, 3.228607605942208E+08, 5.210348590133296E+07,
2460189.500000000, A.D. 2023-Sep-02 00:00:00.0000, -3.671970133459655E+08, 3.157002457011484E+08, 5.075968087998627E+07,
2460196.500000000, A.D. 2023-Sep-09 00:00:00.0000, -3.737650413020148E+08, 3.084069349604731E+08, 4.939452960268825E+07,
2460203.500000000, A.D. 2023-Sep-16 00:00:00.0000, -3.801761134076340E+08, 3.009840376046880E+08, 4.800862960087457E+07,
2460210.500000000, A.D. 2023-Sep-23 00:00:00.0000, -3.864277131486074E+08, 2.934348067791564E+08, 4.660258523229261E+07,
2460217.500000000, A.D. 2023-Sep-30 00:00:00.0000, -3.925173910881828E+08, 2.857625393096976E+08, 4.517700742337622E+07,
2460224.500000000, A.D. 2023-Oct-07 00:00:00.0000, -3.984427665141743E+08, 2.779705762339861E+08, 4.373251366605482E+07,
2460231.500000000, A.D. 2023-Oct-14 00:00:00.0000, -4.042015301152994E+08, 2.700623007852992E+08, 4.226972790315038E+07,
2460238.500000000, A.D. 2023-Oct-21 00:00:00.0000, -4.097914444566779E+08, 2.620411354310828E+08, 4.078928013731651E+07,
2460245.500000000, A.D. 2023-Oct-28 00:00:00.0000, -4.152103436794245E+08, 2.539105402252030E+08, 3.929180607911378E+07,
2460252.500000000, A.D. 2023-Nov-04 00:00:00.0000, -4.204561336764902E+08, 2.456740117041840E+08, 3.777794688634682E+07,
2460259.500000000, A.D. 2023-Nov-11 00:00:00.0000, -4.255267925682135E+08, 2.373350817287551E+08, 3.624834892972659E+07,
2460266.500000000, A.D. 2023-Nov-18 00:00:00.0000, -4.304203712585112E+08, 2.288973162070426E+08, 3.470366355976699E+07,
2460273.500000000, A.D. 2023-Nov-25 00:00:00.0000, -4.351349939993461E+08, 2.203643137224775E+08, 3.314454687032452E+07,
2460280.500000000, A.D. 2023-Dec-02 00:00:00.0000, -4.396688589355790E+08, 2.117397040558669E+08, 3.157165945544787E+07,
2460287.500000000, A.D. 2023-Dec-09 00:00:00.0000, -4.440202385521489E+08, 2.030271465433464E+08, 2.998566614764111E+07,
2460294.500000000, A.D. 2023-Dec-16 00:00:00.0000, -4.481874797351259E+08, 1.942303282829765E+08, 2.838723571214394E+07,
2460301.500000000, A.D. 2023-Dec-23 00:00:00.0000, -4.521690030970002E+08, 1.853529628767238E+08, 2.677704052133704E+07,
2460308.500000000, A.D. 2023-Dec-30 00:00:00.0000, -4.559633029062748E+08, 1.763987907555670E+08, 2.515575641785418E+07,
2460315.500000000, A.D. 2024-Jan-06 00:00:00.0000, -4.595689493958843E+08, 1.673715787261696E+08, 2.352406273601514E+07,
2460322.500000000, A.D. 2024-Jan-13 00:00:00.0000, -4.629845902796339E+08, 1.582751169330492E+08, 2.188264204287439E+07,
2460329.500000000, A.D. 2024-Jan-20 00:00:00.0000, -4.662089502531183E+08, 1.491132163211127E+08, 2.023217973861530E+07,
2460336.500000000, A.D. 2024-Jan-27 00:00:00.0000, -4.692408305090098E+08, 1.398897072504713E+08, 1.857336375544392E+07,
2460343.500000000, A.D. 2024-Feb-03 00:00:00.0000, -4.720791086970313E+08, 1.306084383158444E+08, 1.690688431647731E+07,
2460350.500000000, A.D. 2024-Feb-10 00:00:00.0000, -4.747227390519204E+08, 1.212732750807103E+08, 1.523343370512459E+07,
2460357.500000000, A.D. 2024-Feb-17 00:00:00.0000, -4.771707525504236E+08, 1.118880987347820E+08, 1.355370603264302E+07,
2460364.500000000, A.D. 2024-Feb-24 00:00:00.0000, -4.794222570609498E+08, 1.024568046897906E+08, 1.186839700156841E+07,
2460371.500000000, A.D. 2024-Mar-02 00:00:00.0000, -4.814764374561150E+08, 9.298330108107127E+07, 1.017820365950401E+07,
2460378.500000000, A.D. 2024-Mar-09 00:00:00.0000, -4.833325555489047E+08, 8.347150711201170E+07, 8.483824125272755E+06,
2460385.500000000, A.D. 2024-Mar-16 00:00:00.0000, -4.849899494565561E+08, 7.392535143836378E+07, 6.785957267231494E+06,
2460392.500000000, A.D. 2024-Mar-23 00:00:00.0000, -4.864480324951346E+08, 6.434877170084102E+07, 5.085302433863640E+06,
2460399.500000000, A.D. 2024-Mar-30 00:00:00.0000, -4.877062938461621E+08, 5.474571517814606E+07, 3.382559440017417E+06,
2460406.500000000, A.D. 2024-Apr-06 00:00:00.0000, -4.887643007410173E+08, 4.512013719236171E+07, 1.678428510066027E+06,
2460413.500000000, A.D. 2024-Apr-13 00:00:00.0000, -4.896216986128031E+08, 3.547599810388564E+07, -2.639007928756624E+04,
2460420.500000000, A.D. 2024-Apr-20 00:00:00.0000, -4.902782101668389E+08, 2.581726157259127E+07, -1.731196350310165E+06,
2460427.500000000, A.D. 2024-Apr-27 00:00:00.0000, -4.907336348869668E+08, 1.614789352293129E+07, -3.435290876328138E+06,
2460434.500000000, A.D. 2024-May-04 00:00:00.0000, -4.909878488911738E+08, 6.471861109491637E+06, -5.137975000186959E+06,
2460441.500000000, A.D. 2024-May-11 00:00:00.0000, -4.910408048991037E+08, -3.206868418115559E+06, -6.838551049227212E+06,
2460448.500000000, A.D. 2024-May-18 00:00:00.0000, -4.908925322296410E+08, -1.288432892870147E+07, -8.536322552415542E+06,
2460455.500000000, A.D. 2024-May-25 00:00:00.0000, -4.905431368037402E+08, -2.255655670794279E+07, -1.023059446231794E+07,
2460462.500000000, A.D. 2024-Jun-01 00:00:00.0000, -4.899928010925319E+08, -3.221959189892593E+07, -1.192067339189914E+07,
2460469.500000000, A.D. 2024-Jun-08 00:00:00.0000, -4.892417837642293E+08, -4.186948010748893E+07, -1.360586789038473E+07,
2460476.500000000, A.D. 2024-Jun-15 00:00:00.0000, -4.882904186300501E+08, -5.150227362707252E+07, -1.528548875000797E+07,
2460483.500000000, A.D. 2024-Jun-22 00:00:00.0000, -4.871391138939234E+08, -6.111403110801421E+07, -1.695884915511739E+07,
2460490.500000000, A.D. 2024-Jun-29 00:00:00.0000, -4.857883538278742E+08, -7.070081749271126E+07, -1.862526462768454E+07,
2460497.500000000, A.D. 2024-Jul-06 00:00:00.0000, -4.842387002295971E+08, -8.025870668798639E+07, -2.028405321373947E+07,
2460504.500000000, A.D. 2024-Jul-13 00:00:00.0000, -4.824907917133870E+08, -8.978378414971364E+07, -2.193453585857122E+07,
2460511.500000000, A.D. 2024-Jul-20 00:00:00.0000, -4.805453428189585E+08, -9.927214823070502E+07, -2.357603669446473E+07,
2460518.500000000, A.D. 2024-Jul-27 00:00:00.0000, -4.784031435938324E+08, -1.087199112519993E+08, -2.520788325926944E+07,
2460525.500000000, A.D. 2024-Aug-03 00:00:00.0000, -4.760650593771992E+08, -1.181232006728123E+08, -2.682940670174783E+07,
2460532.500000000, A.D. 2024-Aug-10 00:00:00.0000, -4.735320306201775E+08, -1.274781603629404E+08, -2.843994198953307E+07,
2460539.500000000, A.D. 2024-Aug-17 00:00:00.0000, -4.708050726948785E+08, -1.367809519546806E+08, -3.003882812239373E+07,
2460546.500000000, A.D. 2024-Aug-24 00:00:00.0000, -4.678852756632751E+08, -1.460277562953960E+08, -3.162540835519378E+07,
2460553.500000000, A.D. 2024-Aug-31 00:00:00.0000, -4.647738038886619E+08, -1.552147750617066E+08, -3.319903044614385E+07,
2460560.500000000, A.D. 2024-Sep-07 00:00:00.0000, -4.614718951229051E+08, -1.643382324092298E+08, -3.475904695358365E+07,
2460567.500000000, A.D. 2024-Sep-14 00:00:00.0000, -4.579808589836916E+08, -1.733943756627727E+08, -3.630481550792299E+07,
2460574.500000000, A.D. 2024-Sep-21 00:00:00.0000, -4.543020768507958E+08, -1.823794746353198E+08, -3.783569883930340E+07,
2460581.500000000, A.D. 2024-Sep-28 00:00:00.0000, -4.504370036702564E+08, -1.912898228044508E+08, -3.935106478061837E+07,
2460588.500000000, A.D. 2024-Oct-05 00:00:00.0000, -4.463871679989596E+08, -2.001217403445196E+08, -4.085028658290338E+07,
2460595.500000000, A.D. 2024-Oct-12 00:00:00.0000, -4.421541706508820E+08, -2.088715760330382E+08, -4.233274326656599E+07,
2460602.500000000, A.D. 2024-Oct-19 00:00:00.0000, -4.377396836947348E+08, -2.175357083008118E+08, -4.379781986978228E+07,
2460609.500000000, A.D. 2024-Oct-26 00:00:00.0000, -4.331454498341786E+08, -2.261105462269747E+08, -4.524490765647478E+07,
2460616.500000000, A.D. 2024-Nov-02 00:00:00.0000, -4.283732819127994E+08, -2.345925306274519E+08, -4.667340431963511E+07,
2460623.500000000, A.D. 2024-Nov-09 00:00:00.0000, -4.234250624471051E+08, -2.429781352160099E+08, -4.808271418717916E+07,
2460630.500000000, A.D. 2024-Nov-16 00:00:00.0000, -4.183027431613684E+08, -2.512638678372247E+08, -4.947224843262574E+07,
2460637.500000000, A.D. 2024-Nov-23 00:00:00.0000, -4.130083444769401E+08, -2.594462718208170E+08, -5.084142529886167E+07,
2460644.500000000, A.D. 2024-Nov-30 00:00:00.0000, -4.075439547472708E+08, -2.675219274995973E+08, -5.218967035744675E+07,
2460651.500000000, A.D. 2024-Dec-07 00:00:00.0000, -4.019117288187200E+08, -2.754874534699482E+08, -5.351641680738020E+07,
2460658.500000000, A.D. 2024-Dec-14 00:00:00.0000, -3.961138866050398E+08, -2.833395063702956E+08, -5.482110564988267E+07,
2460665.500000000, A.D. 2024-Dec-21 00:00:00.0000, -3.901527139930666E+08, -2.910747804180922E+08, -5.610318562767725E+07,
2460672.500000000, A.D. 2024-Dec-28 00:00:00.0000, -3.840305641069744E+08, -2.986900096732534E+08, -5.736211335217248E+07,
2460679.500000000, A.D. 2025-Jan-04 00:00:00.0000, -3.777498563345850E+08, -3.061819706521264E+08, -5.859735366256718E+07,
2460686.500000000, A.D. 2025-Jan-11 00:00:00.0000, -3.713130749369432E+08, -3.135474836312920E+08, -5.980837991381243E+07,
2460693.500000000, A.D. 2025-Jan-18 00:00:00.0000, -3.647227681570529E+08, -3.207834135590777E+08, -6.099467418388239E+07,
2460700.500000000, A.D. 2025-Jan-25 00:00:00.0000, -3.579815475831721E+08, -3.278866710490645E+08, -6.215572746106389E+07,
2460707.500000000, A.D. 2025-Feb-01 00:00:00.0000, -3.510920875765390E+08, -3.348542134859329E+08, -6.329103983088115E+07,
2460714.500000000, A.D. 2025-Feb-08 00:00:00.0000, -3.440571247049510E+08, -3.416830462241544E+08, -6.440012066624887E+07,
$$EOE